IRIDIUM 36              
1 24967U 97056C   24139.59530408  .00001246  00000+0  41560-3 0  9999
2 24967  86.3962 338.7238 0002071  92.2102 267.9332 14.36798175395543
IRIDIUM 39              
1 25042U 97069D   24139.43140268  .00001615  00000+0  42951-3 0  9997
2 25042  86.3951  20.2863 0018094 176.9079 183.2239 14.47942915391815
IRIDIUM 38              
1 25043U 97069E   24139.47289228  .00001287  00000+0  42566-3 0  9999
2 25043  86.3992  39.1455 0001740  33.3684 326.7622 14.37254732389241
IRIDIUM 42              
1 25077U 97077A   24139.49055247  .00001176  00000+0  40182-3 0  9998
2 25077  86.3993  44.8223 0002068  69.2822 290.8596 14.35556819384550
IRIDIUM 44              
1 25078U 97077B   24139.59965368  .00001239  00000+0  39224-3 0  9999
2 25078  86.3990  27.7660 0000844 136.7305 223.3960 14.39389667386927
IRIDIUM 45              
1 25104U 97082A   24139.52393431  .00020755  00000+0  11732-2 0  9991
2 25104  86.3757 236.1604 0159724 348.0479  11.6979 15.02675489392403
IRIDIUM 24              
1 25105U 97082B   24139.58562416  .00001636  00000+0  50124-3 0  9995
2 25105  86.3922 247.3948 0009608 307.2315  52.8008 14.41168182386361
IRIDIUM 51              
1 25262U 98018A   24139.57229782  .00025185  00000+0  11923-2 0  9992
2 25262  86.3970 246.0431 0144933 291.8442  66.7432 15.10291626387162
